STARLINK-6141
1 57112U 23090M   26090.83335647  .00003544  00000+0  25643-3 0  9994
2 57112  43.0008 154.4825 0002263 257.6613  63.5682 15.05526296  5764
